FENGYUN 3D              
1 43010U 17072A   26162.93222432 -.00000221  00000+0 -82716-4 0  9993
2 43010  99.0120 137.2593 0002641  70.7878 289.3583 14.19737306444248
NOAA 20 (JPSS-1)        
1 43013U 17073A   26162.92631339  .00000045  00000+0  42376-4 0  9996
2 43013  98.7772 102.4357 0000340  55.9435 304.1773 14.19510819443727
GOES 17                 
1 43226U 18022A   26162.89065808 -.00000167  00000+0  00000+0 0  9994
2 43226   0.9230  85.8045 0000462  25.2793  20.2934  1.00270721 30376
SENTINEL-3B             
1 43437U 18039A   26162.43904625  .00000076  00000+0  49397-4 0  9990
2 43437  98.6248 230.0537 0000809  80.8461 279.2811 14.26740095423304
FENGYUN 2H              
1 43491U 18050A   26162.92410068 -.00000116  00000+0  00000+0 0  9999
2 43491   3.0163  79.1404 0001818 131.0417 102.1944  1.00270423 29388
METOP-C                 
1 43689U 18087A   26162.85937697  .00000077  00000+0  55142-4 0  9999
2 43689  98.6645 222.5601 0001575 135.3148 224.8156 14.21510658394075
GEO-KOMPSAT-2A          
1 43823U 18100A   26162.93372073 -.00000327  00000+0  00000+0 0  9992
2 43823   0.0546 130.4275 0001879 315.1900 279.0514  1.00273740 27576
METEOR-M2 2             
1 44387U 19038A   26162.97620885 -.00000282  00000+0 -10204-3 0  9992
2 44387  98.9142 150.1843 0002213  56.2217 303.9172 14.24363602360559
ARKTIKA-M 1             
1 47719U 21016A   26160.51571443 -.00000149  00000+0  00000+0 0  9996
2 47719  63.2417  58.7595 7285674 269.8905  14.6803  2.00625436 38630
FENGYUN 3E              
1 49008U 21062A   26162.98714271  .00000081  00000+0  58676-4 0  9992
2 49008  98.7494 166.4528 0002775  94.5916 265.5578 14.19904044255849
GOES 18                 
1 51850U 22021A   26162.66734682  .00000113  00000+0  00000+0 0  9998
2 51850   0.0332 125.7729 0000460  29.3228 208.1548  1.00271607  6534
NOAA 21 (JPSS-2)        
1 54234U 22150A   26162.88892287  .00000028  00000+0  34005-4 0  9992
2 54234  98.7060 101.7670 0001370 166.0993 194.0221 14.19564579185797
METEOSAT-12 (MTG-I1)    
1 54743U 22170C   26162.90824831  .00000007  00000+0  00000+0 0  9992
2 54743   0.7322  22.0444 0003228  71.9393 132.8078  1.00271747 12924
TIANMU-1 03             
1 55973U 23039A   26162.94089105  .00013740  00000+0  27257-3 0  9999
2 55973  97.5227 336.7059 0004224 112.1193 248.0506 15.47136632180020
TIANMU-1 04             
1 55974U 23039B   26162.93238645  .00014816  00000+0  28774-3 0  9994
2 55974  97.5165 335.8504 0004791 109.2263 250.9506 15.47730901180033
TIANMU-1 05             
1 55975U 23039C   26162.92140630  .00013919  00000+0  27680-3 0  9998
2 55975  97.5208 336.3026 0003837 126.7064 233.4539 15.47062715180000
TIANMU-1 06             
1 55976U 23039D   26162.93544216  .00014110  00000+0  27507-3 0  9990
2 55976  97.5218 336.9475 0004185 123.9463 236.2186 15.47636265180034
FENGYUN 3G              
1 56232U 23055A   26162.95748750  .00022039  00000+0  36016-3 0  9999
2 56232  49.9936  12.9644 0006892 273.6750  86.3429 15.52398899179199
METEOR-M2 3             
1 57166U 23091A   26162.96932284 -.00000012  00000+0  13477-4 0  9999
2 57166  98.6091 218.0542 0004061 168.9827 191.1442 14.24046304153777
TIANMU-1 07             
1 57399U 23101A   26162.93264765  .00005808  00000+0  20411-3 0  9990
2 57399  97.2600 213.7216 0003811 132.4792 227.6771 15.29746610160844
TIANMU-1 08             
1 57400U 23101B   26162.96471684  .00005750  00000+0  20202-3 0  9990
2 57400  97.2589 213.5242 0005386 127.6500 232.5230 15.29751621160845
TIANMU-1 09             
1 57401U 23101C   26162.94823390  .00005920  00000+0  20776-3 0  9999
2 57401  97.2547 212.9267 0004249 138.5142 221.6422 15.29780628160841
TIANMU-1 10             
1 57402U 23101D   26162.91577554  .00005720  00000+0  20098-3 0  9990
2 57402  97.2627 213.9401 0005828 139.9838 220.1834 15.29751280160835
FENGYUN 3F              
1 57490U 23111A   26162.90071613  .00000025  00000+0  32404-4 0  9990
2 57490  98.6841 233.0077 0001593  97.1231 263.0127 14.19938181148117
ARKTIKA-M 2             
1 58584U 23198A   26160.78386103  .00000212  00000+0  00000+0 0  9997
2 58584  63.2205 155.1874 6900401 267.4353  18.7899  2.00606537 18179
TIANMU-1 11             
1 58645U 23205A   26163.00759687  .00005425  00000+0  20760-3 0  9993
2 58645  97.3449 184.6456 0009565  34.2923 325.8932 15.26942497136739
TIANMU-1 12             
1 58646U 23205B   26162.97783708  .00005014  00000+0  19238-3 0  9992
2 58646  97.3437 184.3732 0007398  21.5017 338.6531 15.26904639136717
TIANMU-1 13             
1 58647U 23205C   26163.00952064  .00005222  00000+0  20118-3 0  9991
2 58647  97.3465 184.6761 0006516   1.5754 358.5504 15.26759094136715
TIANMU-1 14             
1 58648U 23205D   26162.99487825  .00005496  00000+0  21126-3 0  9990
2 58648  97.3401 183.8476 0007512   5.0459 355.0854 15.26804160136713
TIANMU-1 19             
1 58660U 23208A   26162.92942263  .00007515  00000+0  24960-3 0  9995
2 58660  97.4495 279.2027 0004226 351.2734   8.8433 15.31494642136525
