OBJECT_NAME,OBJECT_ID,EPOCH,MEAN_MOTION,ECCENTRICITY,INCLINATION,RA_OF_ASC_NODE,ARG_OF_PERICENTER,MEAN_ANOMALY,EPHEMERIS_TYPE,CLASSIFICATION_TYPE,NORAD_CAT_ID,ELEMENT_SET_NO,REV_AT_EPOCH,BSTAR,MEAN_MOTION_DOT,MEAN_MOTION_DDOT
FENGYUN 3D,2017-072A,2026-06-11T22:22:24.181248,14.19737306,.00026417,99.0120,137.2593,70.7878,289.3583,0,U,43010,999,44424,-.8271574E-4,-.221E-5,0
NOAA 20 (JPSS-1),2017-073A,2026-06-11T22:13:53.476896,14.19510819,.00003402,98.7772,102.4357,55.9435,304.1773,0,U,43013,999,44372,.42375766E-4,.45E-6,0
GOES 17,2018-022A,2026-06-11T21:22:32.858112,1.00270721,.00004629,0.9230,85.8045,25.2793,20.2934,0,U,43226,999,3037,0,-.167E-5,0
SENTINEL-3B,2018-039A,2026-06-11T10:32:13.596000,14.26740095,.0000809,98.6248,230.0537,80.8461,279.2811,0,U,43437,999,42330,.49397E-4,.76E-6,0
FENGYUN 2H,2018-050A,2026-06-11T22:10:42.298752,1.00270423,.00018182,3.0163,79.1404,131.0417,102.1944,0,U,43491,999,2938,0,-.116E-5,0
METOP-C,2018-087A,2026-06-11T20:37:30.170208,14.21510658,.00015759,98.6645,222.5601,135.3148,224.8156,0,U,43689,999,39407,.55141949E-4,.77E-6,0
GEO-KOMPSAT-2A,2018-100A,2026-06-11T22:24:33.471072,1.00273740,.00018796,0.0546,130.4275,315.1900,279.0514,0,U,43823,999,2757,0,-.327E-5,0
METEOR-M2 2,2019-038A,2026-06-11T23:25:44.444640,14.24363602,.00022132,98.9142,150.1843,56.2217,303.9172,0,U,44387,999,36055,-.10203931E-3,-.282E-5,0
ARKTIKA-M 1,2021-016A,2026-06-09T12:22:37.726752,2.00625436,.7285674,63.2417,58.7595,269.8905,14.6803,0,U,47719,999,3863,0,-.149E-5,0
FENGYUN 3E,2021-062A,2026-06-11T23:41:29.130144,14.19904044,.0002775,98.7494,166.4528,94.5916,265.5578,0,U,49008,999,25584,.58676267E-4,.81E-6,0
GOES 18,2022-021A,2026-06-11T16:00:58.765248,1.00271607,.000046,0.0332,125.7729,29.3228,208.1548,0,U,51850,999,653,0,.113E-5,0
NOAA 21 (JPSS-2),2022-150A,2026-06-11T21:20:02.935968,14.19564579,.00013709,98.7060,101.7670,166.0993,194.0221,0,U,54234,999,18579,.34005166E-4,.28E-6,0
METEOSAT-12 (MTG-I1),2022-170C,2026-06-11T21:47:52.653984,1.00271747,.0003228,0.7322,22.0444,71.9393,132.8078,0,U,54743,999,1292,0,.7E-7,0
TIANMU-1 03,2023-039A,2026-06-11T22:34:52.986720,15.47136632,.00042246,97.5227,336.7059,112.1193,248.0506,0,U,55973,999,18002,.27256871E-3,.1374E-3,0
TIANMU-1 04,2023-039B,2026-06-11T22:22:38.189280,15.47730901,.00047917,97.5165,335.8504,109.2263,250.9506,0,U,55974,999,18003,.28773894E-3,.14816E-3,0
TIANMU-1 05,2023-039C,2026-06-11T22:06:49.504320,15.47062715,.00038375,97.5208,336.3026,126.7064,233.4539,0,U,55975,999,18000,.27679764E-3,.13919E-3,0
TIANMU-1 06,2023-039D,2026-06-11T22:27:02.202624,15.47636265,.00041858,97.5218,336.9475,123.9463,236.2186,0,U,55976,999,18003,.2750725E-3,.1411E-3,0
FENGYUN 3G,2023-055A,2026-06-11T22:58:46.920000,15.52398899,.00068925,49.9936,12.9644,273.6750,86.3429,0,U,56232,999,17919,.3601635E-3,.22039E-3,0
METEOR-M2 3,2023-091A,2026-06-11T23:15:49.493376,14.24046304,.00040616,98.6091,218.0542,168.9827,191.1442,0,U,57166,999,15377,.13476674E-4,-.12E-6,0
TIANMU-1 07,2023-101A,2026-06-11T22:23:00.756960,15.29746610,.00038114,97.2600,213.7216,132.4792,227.6771,0,U,57399,999,16084,.20410546E-3,.5808E-4,0
TIANMU-1 08,2023-101B,2026-06-11T23:09:11.534976,15.29751621,.0005386,97.2589,213.5242,127.6500,232.5230,0,U,57400,999,16084,.20202236E-3,.575E-4,0
TIANMU-1 09,2023-101C,2026-06-11T22:45:27.408960,15.29780628,.00042499,97.2547,212.9267,138.5142,221.6422,0,U,57401,999,16084,.20775606E-3,.592E-4,0
TIANMU-1 10,2023-101D,2026-06-11T21:58:43.006656,15.29751280,.00058281,97.2627,213.9401,139.9838,220.1834,0,U,57402,999,16083,.20098078E-3,.572E-4,0
FENGYUN 3F,2023-111A,2026-06-11T21:37:01.873632,14.19938181,.00015935,98.6841,233.0077,97.1231,263.0127,0,U,57490,999,14811,.32403754E-4,.25E-6,0
ARKTIKA-M 2,2023-198A,2026-06-09T18:48:45.592992,2.00606537,.69004015,63.2205,155.1874,267.4353,18.7899,0,U,58584,999,1817,0,.212E-5,0
TIANMU-1 11,2023-205A,2026-06-12T00:10:56.369568,15.26942497,.00095655,97.3449,184.6456,34.2923,325.8932,0,U,58645,999,13673,.20760222E-3,.5425E-4,0
TIANMU-1 12,2023-205B,2026-06-11T23:28:05.123712,15.26904639,.00073988,97.3437,184.3732,21.5017,338.6531,0,U,58646,999,13671,.19238426E-3,.5014E-4,0
TIANMU-1 13,2023-205C,2026-06-12T00:13:42.583296,15.26759094,.00065166,97.3465,184.6761,1.5754,358.5504,0,U,58647,999,13671,.20118359E-3,.5222E-4,0
TIANMU-1 14,2023-205D,2026-06-11T23:52:37.480800,15.26804160,.0007512,97.3401,183.8476,5.0459,355.0854,0,U,58648,999,13671,.21126169E-3,.5496E-4,0
TIANMU-1 19,2023-208A,2026-06-11T22:18:22.115232,15.31494642,.00042267,97.4495,279.2027,351.2734,8.8433,0,U,58660,999,13652,.24959989E-3,.7515E-4,0
